25621,GLOBALSTAR M023,1999,114.06,-1.0,-,52.01,Inactive,0,LEO,Kazakhstan,Globalstar,Unknown,Unknown,Unknown,1 25621U 99004A   24354.02407652  .00000070  00000+0  96712-3 0  9996,2 25621  52.0099 242.0411 0010877  87.8882  44.1889 12.62490566192974,12.62490566,0.0010877,LEO
25622,GLOBALSTAR M040,1999,114.11,-1.0,-,51.99,Inactive,0,LEO,Kazakhstan,Globalstar,Unknown,Unknown,Unknown,1 25622U 99004B   24354.78051517 -.00000009  00000+0  52894-3 0  9991,2 25622  51.9908 243.6235 0001518  37.4033   5.9094 12.61995186192907,12.61995186,0.0001518,LEO
25623,GLOBALSTAR M036,1999,121.36,-1.0,-,52.0,Inactive,0,LEO,Kazakhstan,Globalstar,Unknown,Unknown,Unknown,1 25623U 99004C   24354.47109649 -.00000020  00000+0  91951-3 0  9998,2 25623  51.9991 354.0097 0011071  68.9954  89.2198 11.86584247157649,11.86584247,0.0011071,LEO
25624,GLOBALSTAR M038,1999,116.83,-1.0,-,52.0,Inactive,0,LEO,Kazakhstan,Globalstar,Unknown,Unknown,Unknown,1 25624U 99004D   24354.41130503 -.00000057  00000+0  31113-3 0  9990,2 25624  51.9957 229.3031 0002855  51.2653 119.5117 12.32516280180205,12.3251628,0.0002855,LEO
25649,GLOBALSTAR M022,1999,119.75,-1.0,-,52.01,Inactive,0,LEO,Kazakhstan,Globalstar,Unknown,Unknown,Unknown,1 25649U 99012A   24354.54972874 -.00000069  00000+0  21077-3 0  9996,2 25649  52.0058  59.2356 0002795 166.4933 340.9699 12.02493497154767,12.02493497,0.0002795,LEO
25650,GLOBALSTAR M041,1999,120.33,-1.0,-,52.0,Inactive,0,LEO,Kazakhstan,Globalstar,Unknown,Unknown,Unknown,1 25650U 99012B   24354.55105535 -.00000016  00000+0  89991-3 0  9992,2 25650  52.0033 295.2092 0002356 339.9892  20.0852 11.96664288156775,11.96664288,0.0002356,LEO
25651,GLOBALSTAR M046,1999,119.07,-1.0,-,52.01,Inactive,0,LEO,Kazakhstan,Globalstar,Unknown,Unknown,Unknown,1 25651U 99012C   24354.35265675 -.00000182  00000+0 -10266-2 0  9996,2 25651  52.0077  16.4708 0002098 247.9214 233.7168 12.09403630161901,12.0940363,0.0002098,LEO
25652,GLOBALSTAR M037,1999,114.07,450.0,-,52.0,Inactive,1,LEO,Kazakhstan,Globalstar,Commercial,Communications,Soyuz,1 25652U 99012D   24354.36402985 -.00000070  00000+0  18842-3 0  9999,2 25652  52.0023  11.6876 0002146 145.8305 227.4704 12.62429593188569,12.62429593,0.0002146,LEO
